#aV2021  7 24  0  0  0.00000000     288 DD+AD WGS84 FIT  NGA
## 2167 518400.00000000   300.00000000 59419 0.0000000000000
+   32     1  2  3  4  5  6  7  8  9 10 11 12 13 14 15 16 17
+         18 19 20 21 22 23 24 25 26 27 28 29 30 31 32  0  0
+          0  0  0  0  0  0  0  0  0  0  0  0  0  0  0  0  0
+          0  0  0  0  0  0  0  0  0  0  0  0  0  0  0  0  0
+          0  0  0  0  0  0  0  0  0  0  0  0  0  0  0  0  0
++         2  2  2  2  2  2  2  2  2  2  2  2  2  2  2  2  2
++         2  2  2  2  2  2  2  2  2  2  2  2  2  2  2  0  0
++         0  0  0  0  0  0  0  0  0  0  0  0  0  0  0  0  0
++         0  0  0  0  0  0  0  0  0  0  0  0  0  0  0  0  0
++         0  0  0  0  0  0  0  0  0  0  0  0  0  0  0  0  0
%c cc cc ccc ccc cccc cccc cccc cccc ccccc ccccc ccccc ccccc
%c cc cc ccc ccc cccc cccc cccc cccc ccccc ccccc ccccc ccccc
%f  0.0000000  0.000000000  0.00000000000  0.000000000000000
%f  0.0000000  0.000000000  0.00000000000  0.000000000000000
%i    0    0    0    0      0      0      0      0         0
%i    0    0    0    0      0      0      0      0         0
/*      NGA, ST. LOUIS,MO.                                  
/*   EPHEMERIS COMPUTED FROM 2 DAYS OF DATA                 
/*   EPOCHA v6 SMOOTHER                                     
/*   G2139 IERS2010 SATIGS SATAPC                           
*  2021  7 24 17 10  0.00000000
P  1  21009.559188  14325.392906  -8525.406445    618.424942                    
V  1 -10187.956989  -2303.923637 -29606.765671     -0.114683                    
P  2    889.739644 -15720.381878  22039.163789   -621.795020                    
V  2  25445.942085   7202.217663   4301.286403     -0.025633                    
P  3  12041.598360  19964.918055  12729.883930   -230.791902                    
V  3    613.363417  16367.746994 -25948.879197     -0.121856                    
P  4  13507.911405   8418.472710  21280.023104   -202.949262                    
V  4 -21140.826959  16792.461592   6717.423057     -0.006436                    
P  5  -6648.394059 -25539.494764  -2153.135969    -48.912981                    
V  5   2496.516069  -3105.158886  31634.496694     -0.011963                    
P  6  13239.446463  -9807.137314  20900.204219     44.947221                    
V  6  24358.467815  10025.351975 -10696.686038      0.057894                    
P  7  25555.766118   5999.725073  -5156.183421    209.825463                    
V  7   5480.337627   5008.578262  30316.119337      0.085981                    
P  8   3787.930901  15760.935352 -20992.000064    -30.011699                    
V  8 -20925.454062  16566.372162   8966.994669     -0.013930                    
P  9  20861.471695  -2582.657618  16188.863589   -356.647695                    
V  9 -14490.218713  14892.976841  20945.058700     -0.013217                    
P 10 -12533.698742  10782.410522 -20606.165324   -168.531685                    
V 10  -5249.116787 -25965.311676 -10603.380656     -0.076250                    
P 11   2365.729746 -15429.885509  21472.321295     22.697358                    
V 11  25089.846431  10790.923704   4981.673871      0.076000                    
P 12 -10289.000881 -21091.902811  12317.703888    -73.148954                    
V 12    563.783057 -16080.868640 -26396.359324     -0.053213                    
P 13   5511.560902 -18330.226213 -18487.887477    161.989355                    
V 13  20534.075608 -10956.001045  17249.286382      0.050547                    
P 14  13104.388761 -11056.481104 -20279.010313     39.747136                    
V 14   4062.045737  25464.664800 -11303.853827     -0.088653                    
P 15  -6407.658304 -15679.411020 -20766.303025   -133.262201                    
V 15  18669.725971 -17730.646330   8117.329775      0.026680                    
P 16   -538.870451  26045.258782   3458.108366   -362.375097                    
V 16  -3131.359133  -4539.376098  31924.382259     -0.061890                    
P 17  22693.279666 -13108.396478  -3900.481831    478.754017                    
V 17  -3184.371967   4954.048700 -31703.742549      0.058003                    
P 18 -24952.773419  -3899.532736  -8367.312436    338.592267                    
V 18  -8930.605546  -6117.949104  29452.735039     -0.029011                    
P 19  20180.745930 -16547.462216   4215.480391     30.558947                    
V 19   6052.083252  -1189.923122 -31681.381882      0.049779                    
P 20    -39.989275 -24667.721327  10151.799510    520.015360                    
V 20   6653.269378  11411.539672  27406.521903     -0.001901                    
P 21  16179.681437  15240.592552 -14213.635482    133.209182                    
V 21 -18867.748796  -3446.660503 -23499.603957      0.022703                    
P 22  10476.730614  23976.254697   5340.297933   -555.490302                    
V 22  -1492.132403   7169.555601 -30087.382846      0.094936                    
P 23 -15511.808860  -1933.036747 -21503.207562     80.176049                    
V 23  -4599.590214 -26839.587747   5676.328054     -0.051725                    
P 24 -18124.384434 -15232.428650 -12682.054920    185.904390                    
V 24  15701.983419   2011.963267 -24964.431215      0.132866                    
P 25 -15143.897649 -10584.393663  18915.353179    179.176959                    
V 25  -2681.384166 -24374.339247 -15308.470326      0.066320                    
P 26  -6040.915256  21476.031893  14144.490429    114.467234                    
V 26  -6448.061384 -17265.449612  23638.032035      0.045399                    
P 27  -6854.362499  19810.136907 -16265.653209   -167.869135                    
V 27 -16942.742559  11557.322182  21807.941214     -0.058047                    
P 28  10429.547755 -17168.111735 -16927.167053    532.196386                    
V 28   3069.150326  22306.877925 -19907.648188     -0.066690                    
P 29 -19988.073249   -195.019349  17470.002510   -385.369174                    
V 29  17467.206834 -13766.842628  19716.458806     -0.060147                    
P 30  21065.276075  -3941.267713 -15769.380967   -454.492595                    
V 30  17765.479744   9734.434577  20967.895446     -0.043021                    
P 31 -12076.866705  11038.184387  20915.239419   -130.444765                    
V 31 -24485.986768 -10643.454648  -8026.254803     -0.021098                    
P 32 -21113.030828  15846.105580  -1773.109988     12.233408                    
V 32   -106.791116  -3898.814766 -31689.539825     -0.022559                    
EOF
